OBJECT_NAME,OBJECT_ID,EPOCH,MEAN_MOTION,ECCENTRICITY,INCLINATION,RA_OF_ASC_NODE,ARG_OF_PERICENTER,MEAN_ANOMALY,EPHEMERIS_TYPE,CLASSIFICATION_TYPE,NORAD_CAT_ID,ELEMENT_SET_NO,REV_AT_EPOCH,BSTAR,MEAN_MOTION_DOT,MEAN_MOTION_DDOT
SALSAT,2020-068K,2026-05-12T11:46:31.994976,15.29261249,.0011544,97.8859,133.3988,72.3805,287.8693,0,U,46495,999,30990,.1839E-3,.5145E-4,0
ICEYE-X6,2020-068M,2026-05-12T20:57:42.896160,15.04324394,.000657,98.0963,124.8654,197.7095,162.3902,0,U,46497,999,30792,.11165E-3,.1489E-4,0
NETSAT-4,2020-068U,2026-05-12T11:05:32.148960,15.42659452,.0007643,97.8618,137.8677,91.7168,268.4954,0,U,46504,999,31026,.25526E-3,.11039E-3,0
NETSAT-3,2020-068V,2026-05-12T18:21:36.491616,15.41436193,.0007548,97.8666,136.4576,103.6114,256.5972,0,U,46505,999,31022,.29114E-3,.12101E-3,0
NETSAT-1,2020-068W,2026-05-12T10:59:52.780992,15.33755660,.0006725,97.8751,130.8697,123.5532,236.6352,0,U,46506,999,30982,.25125E-3,.812E-4,0
NETSAT-2,2020-068X,2026-05-12T17:48:10.368288,15.44467626,.0006178,97.8632,137.9447,111.8549,248.3355,0,U,46507,999,31026,.32056E-3,.14764E-3,0
TIANQI-6,2020-076D,2026-05-12T18:17:37.230144,15.06949186,.0010623,34.9993,265.8385,220.1034,139.8892,0,U,46810,999,30323,.15464E-3,.2334E-4,0
KSM1-C,2020-081B,2026-05-12T18:31:55.977888,15.26157023,.0002947,36.8938,277.4812,273.0615,86.9796,0,U,46906,999,30375,.2282E-3,.5941E-4,0
KSM1-D,2020-081C,2026-05-12T19:02:36.629664,15.24224154,.0004863,36.8968,285.6908,310.4945,49.5380,0,U,46907,999,30369,.19039E-3,.4657E-4,0
KSM1-A,2020-081H,2026-05-12T18:10:59.708928,15.25411303,.0002871,36.8964,279.6988,4.2721,355.8052,0,U,46912,999,30376,.19391E-3,.4918E-4,0
R2,2020-081J,2026-05-12T16:50:30.652224,15.24919932,.0007523,36.8978,279.8492,334.8883,25.1499,0,U,46913,999,30656,.20446E-3,.5117E-4,0
KSM1-B,2020-081K,2026-05-12T19:00:41.194080,15.24024165,.0006255,36.9020,286.2205,331.8082,28.2327,0,U,46914,999,30678,.19614E-3,.4772E-4,0
GONETS-M 20,2020-091A,2026-05-12T19:53:40.732224,12.42892495,.0019987,82.5041,324.4229,257.4520,102.4324,0,U,47227,999,24668,-.28945E-3,-.3E-6,0
GONETS-M 21,2020-091B,2026-05-12T21:11:41.783136,12.42884716,.0013804,82.4964,323.1179,272.4072,87.5428,0,U,47228,999,24668,.1331E-3,.28E-6,0
GONETS-M 22,2020-091C,2026-05-12T20:33:09.689760,12.42890861,.0020855,82.5024,324.0168,252.4473,107.4328,0,U,47229,999,24663,.27547E-3,.48E-6,0
CUBEL,2021-006AM,2026-05-12T02:47:49.893216,15.40424322,.00050409,97.2366,183.0610,312.0474,48.0343,0,U,47448,999,29420,.13637483E-3,.5435E-4,0
ARKTIKA-M 1,2021-016A,2026-05-09T02:45:45.668160,2.00634688,.72733431,63.2307,63.2755,269.7576,14.8669,0,U,47719,999,3800,0,-.78E-6,0
STARLINK-2342,2021-021Z,2026-05-12T19:12:49.264416,15.54488250,.0003471,53.1554,321.3659,211.6489,148.4314,0,U,47883,999,28636,.10833E-2,.72762E-3,0
GRUS-1B,2021-022C,2026-05-12T20:42:51.759648,14.98893989,.0017147,97.5425,17.2163,78.6700,281.6449,0,U,47934,999,28060,.24307E-4,.237E-5,0
UNISAT-7,2021-022P,2026-05-12T11:39:31.628736,15.39504894,.0008726,97.3922,37.0602,188.9079,171.2013,0,U,47945,999,28436,.22177E-3,.8632E-4,0
GLOBAL-9,2021-023G,2026-05-12T13:59:21.031584,15.45157262,.0002265,44.9807,90.4158,100.2866,259.8279,0,U,47971,999,28943,.26807E-3,.12653E-3,0
AII-BRAVO,2021-034C,2026-05-12T09:52:06.484224,15.03197705,.0006997,97.5657,188.1409,46.7583,313.4225,0,U,48270,999,27424,.18506E-3,.2444E-4,0
TYVAK-182A,2021-034D,2026-05-12T02:50:39.442848,15.05812047,.00072484,97.5741,191.6672,95.4263,264.7791,0,U,48271,999,27440,.26165998E-3,.3735E-4,0
CSS (TIANHE),2021-035A,2026-05-12T12:27:39.225600,15.62150141,.0004229,41.4671,178.9319,292.2546,67.7845,0,U,48274,999,28759,.13837E-3,.12182E-3,0
TYVAK-0130,2021-041BF,2026-05-12T10:43:39.580896,15.27062829,.0011109,52.9934,191.9991,61.0219,299.1890,0,U,48606,999,27492,.18207E-3,.4556E-4,0
HAIYANG-2D,2021-043A,2026-05-12T20:49:58.934208,13.83372768,.0011402,66.0003,32.6326,273.3170,86.6593,0,U,48621,999,25166,.35685E-4,-.42E-6,0
TYVAK-0173,2021-059P,2026-05-12T19:31:19.210656,14.81766767,.0010362,96.0084,217.9648,141.1212,219.0753,0,U,48892,999,26300,.14548E-3,.1117E-4,0
