SALSAT                  
1 46495U 20068K   26132.49064809  .00005145  00000+0  18390-3 0  9996
2 46495  97.8859 133.3988 0011544  72.3805 287.8693 15.29261249309906
ICEYE-X6                
1 46497U 20068M   26132.87341315  .00001489  00000+0  11165-3 0  9990
2 46497  98.0963 124.8654 0006570 197.7095 162.3902 15.04324394307922
NETSAT-4                
1 46504U 20068U   26132.46217765  .00011039  00000+0  25526-3 0  9993
2 46504  97.8618 137.8677 0007643  91.7168 268.4954 15.42659452310264
NETSAT-3                
1 46505U 20068V   26132.76500569  .00012101  00000+0  29114-3 0  9992
2 46505  97.8666 136.4576 0007548 103.6114 256.5972 15.41436193310227
NETSAT-1                
1 46506U 20068W   26132.45824978  .00008120  00000+0  25125-3 0  9996
2 46506  97.8751 130.8697 0006725 123.5532 236.6352 15.33755660309825
NETSAT-2                
1 46507U 20068X   26132.74178667  .00014764  00000+0  32056-3 0  9998
2 46507  97.8632 137.9447 0006178 111.8549 248.3355 15.44467626310262
TIANQI-6                
1 46810U 20076D   26132.76223646  .00002334  00000+0  15464-3 0  9998
2 46810  34.9993 265.8385 0010623 220.1034 139.8892 15.06949186303239
KSM1-C                  
1 46906U 20081B   26132.77217567  .00005941  00000+0  22820-3 0  9997
2 46906  36.8938 277.4812 0002947 273.0615  86.9796 15.26157023303756
KSM1-D                  
1 46907U 20081C   26132.79347951  .00004657  00000+0  19039-3 0  9992
2 46907  36.8968 285.6908 0004863 310.4945  49.5380 15.24224154303693
KSM1-A                  
1 46912U 20081H   26132.75763552  .00004918  00000+0  19391-3 0  9994
2 46912  36.8964 279.6988 0002871   4.2721 355.8052 15.25411303303765
R2                      
1 46913U 20081J   26132.70174366  .00005117  00000+0  20446-3 0  9994
2 46913  36.8978 279.8492 0007523 334.8883  25.1499 15.24919932306566
KSM1-B                  
1 46914U 20081K   26132.79214345  .00004772  00000+0  19614-3 0  9997
2 46914  36.9020 286.2205 0006255 331.8082  28.2327 15.24024165306782
GONETS-M 20             
1 47227U 20091A   26132.82894366 -.00000030  00000+0 -28945-3 0  9999
2 47227  82.5041 324.4229 0019987 257.4520 102.4324 12.42892495246687
GONETS-M 21             
1 47228U 20091B   26132.88312249  .00000028  00000+0  13310-3 0  9996
2 47228  82.4964 323.1179 0013804 272.4072  87.5428 12.42884716246687
GONETS-M 22             
1 47229U 20091C   26132.85636215  .00000048  00000+0  27547-3 0  9995
2 47229  82.5024 324.0168 0020855 252.4473 107.4328 12.42890861246635
CUBEL                   
1 47448U 21006AM  26132.11654969  .00005435  00000+0  13637-3 0  9990
2 47448  97.2366 183.0610 0005040 312.0474  48.0343 15.40424322294207
ARKTIKA-M 1             
1 47719U 21016A   26129.11511190 -.00000078  00000+0  00000+0 0  9991
2 47719  63.2307  63.2755 7273343 269.7576  14.8669  2.00634688 38002
STARLINK-2342           
1 47883U 21021Z   26132.80057019  .00072762  00000+0  10833-2 0  9990
2 47883  53.1554 321.3659 0003471 211.6489 148.4314 15.54488250286362
GRUS-1B                 
1 47934U 21022C   26132.86309907  .00000237  00000+0  24307-4 0  9991
2 47934  97.5425  17.2163 0017147  78.6700 281.6449 14.98893989280607
UNISAT-7                
1 47945U 21022P   26132.48578274  .00008632  00000+0  22177-3 0  9995
2 47945  97.3922  37.0602 0008726 188.9079 171.2013 15.39504894284362
GLOBAL-9                
1 47971U 21023G   26132.58288231  .00012653  00000+0  26807-3 0  9999
2 47971  44.9807  90.4158 0002265 100.2866 259.8279 15.45157262289433
AII-BRAVO               
1 48270U 21034C   26132.41118616  .00002444  00000+0  18506-3 0  9999
2 48270  97.5657 188.1409 0006997  46.7583 313.4225 15.03197705274244
TYVAK-182A              
1 48271U 21034D   26132.11851207  .00003735  00000+0  26166-3 0  9992
2 48271  97.5741 191.6672 0007248  95.4263 264.7791 15.05812047274405
CSS (TIANHE)            
1 48274U 21035A   26132.51920400  .00012182  00000+0  13837-3 0  9999
2 48274  41.4671 178.9319 0004229 292.2546  67.7845 15.62150141287599
TYVAK-0130              
1 48606U 21041BF  26132.44698589  .00004556  00000+0  18207-3 0  9999
2 48606  52.9934 191.9991 0011109  61.0219 299.1890 15.27062829274922
HAIYANG-2D              
1 48621U 21043A   26132.86804322 -.00000042  00000+0  35685-4 0  9995
2 48621  66.0003  32.6326 0011402 273.3170  86.6593 13.83372768251666
TYVAK-0173              
1 48892U 21059P   26132.81341679  .00001117  00000+0  14548-3 0  9995
2 48892  96.0084 217.9648 0010362 141.1212 219.0753 14.81766767263002
